OBJECT_NAME,OBJECT_ID,EPOCH,MEAN_MOTION,ECCENTRICITY,INCLINATION,RA_OF_ASC_NODE,ARG_OF_PERICENTER,MEAN_ANOMALY,EPHEMERIS_TYPE,CLASSIFICATION_TYPE,NORAD_CAT_ID,ELEMENT_SET_NO,REV_AT_EPOCH,BSTAR,MEAN_MOTION_DOT,MEAN_MOTION_DDOT
STARLINK-3705,2022-029R,2026-06-24T03:28:21.967680,15.12496866,.00015051,53.1610,321.0143,125.9078,234.2055,0,U,52103,999,23685,.10995151E-1,.198779E-2,0
STARLINK-3706,2022-029T,2026-06-24T06:00:02.000160,15.15794589,.00012281,53.1592,320.4529,107.1691,185.2518,0,U,52105,999,579,.43012867E-2,.83776E-3,0
STARLINK-3670,2022-029U,2026-06-24T06:00:02.000160,15.25466356,.00011238,53.1614,329.9948,63.5741,356.7445,0,U,52106,999,580,.44263638E-2,.114916E-2,0
STARLINK-3658,2022-029V,2026-06-24T06:00:02.000160,15.15000653,.00014091,53.1592,320.5085,108.7404,180.3018,0,U,52107,999,589,.43925564E-2,.83651E-3,0
STARLINK-3698,2022-029W,2026-06-24T06:00:02.000160,15.14870983,.0001527,53.1594,320.5053,93.1954,157.1147,0,U,52108,999,574,.43785184E-2,.83071E-3,0
STARLINK-3687,2022-029Y,2026-06-24T06:00:02.000160,15.14901511,.00014271,53.1593,320.5089,92.2676,176.4738,0,U,52110,999,589,.43717354E-2,.83012E-3,0
STARLINK-3708,2022-029Z,2026-06-24T06:00:02.000160,15.14436308,.00010832,53.1593,320.5299,118.6192,219.2907,0,U,52111,999,579,.45190862E-2,.84719E-3,0
STARLINK-3734,2022-029AA,2026-06-24T06:00:02.000160,15.56531355,.0000919,53.2165,305.8491,82.1399,257.7944,0,U,52112,999,583,.39911872E-2,.298818E-2,0
STARLINK-3736,2022-029AB,2026-06-24T06:00:02.000160,15.18118867,.00008589,53.1607,320.3181,72.8538,55.4985,0,U,52113,999,584,.39435828E-2,.82053E-3,0
STARLINK-3737,2022-029AC,2026-06-24T06:00:02.000160,15.16295379,.00008046,53.1588,320.4408,112.4006,251.7292,0,U,52114,999,559,.42360002E-2,.83685E-3,0
STARLINK-3685,2022-029AD,2026-06-24T06:00:02.000160,15.26294963,.00006462,53.1590,319.8855,55.3575,336.4656,0,U,52115,999,575,.46716823E-2,.124538E-2,0
STARLINK-3735,2022-029AE,2026-06-24T06:00:02.000160,15.16605107,.00007541,53.1595,320.4281,116.4100,294.9451,0,U,52116,999,584,.42446084E-2,.84612E-3,0
STARLINK-3738,2022-029AF,2026-06-24T06:00:02.000160,15.16393534,.00011509,53.1607,320.4355,67.3719,80.1471,0,U,52117,999,580,.39964938E-2,.79107E-3,0
STARLINK-3743,2022-029AG,2026-06-24T06:00:02.000160,15.14772926,.00007329,53.1590,320.5258,30.7766,10.2110,0,U,52118,999,579,.42219406E-2,.7983E-3,0
STARLINK-3558,2022-029AH,2026-06-24T06:00:02.000160,15.24577402,.00013412,53.1595,319.8877,75.3107,35.3883,0,U,52119,999,575,.36405726E-2,.91676E-3,0
STARLINK-3534,2022-029AJ,2026-06-24T06:00:02.000160,15.26920391,.00014884,53.1590,319.8292,63.9120,14.4077,0,U,52120,999,580,.47831446E-2,.130053E-2,0
STARLINK-3678,2022-029AK,2026-06-24T01:58:43.187520,15.08831313,.00014481,53.1605,311.3680,96.7191,263.3966,0,U,52121,999,23698,.10206342E-4,-.126E-5,0
STARLINK-3726,2022-029AL,2026-06-24T06:00:02.000160,15.14955997,.00014298,53.1608,320.4936,91.3431,46.2633,0,U,52122,999,580,.41507349E-2,.78876E-3,0
STARLINK-3725,2022-029AM,2026-06-23T15:50:38.479776,15.08844507,.00011702,53.1593,313.0854,93.9797,266.1328,0,U,52123,999,23693,.14205991E-3,.1974E-4,0
STARLINK-3727,2022-029AP,2026-06-24T01:42:50.250816,15.08823496,.00013625,53.1583,311.4156,87.9577,272.1571,0,U,52125,999,23699,.19664937E-3,.2842E-4,0
STARLINK-3732,2022-029AQ,2026-06-24T01:53:25.011744,15.08831819,.00012366,53.1612,311.3825,85.4831,274.6302,0,U,52126,999,23698,.36005744E-4,.285E-5,0
STARLINK-3715,2022-029AR,2026-06-24T01:37:30.646848,15.08831817,.00005162,53.1609,311.4323,54.2967,305.8072,0,U,52127,999,23698,-.20406952E-4,-.612E-5,0
STARLINK-3661,2022-029AT,2026-06-23T15:54:36.244800,15.08834020,.000132,53.1613,313.2546,97.8093,262.3048,0,U,52129,999,23693,-.21685967E-4,-.633E-5,0
STARLINK-3711,2022-029AV,2026-06-24T01:57:52.754976,15.18890633,.0001776,53.2115,304.0964,173.7620,186.3399,0,U,52131,999,23710,.11736087E-2,.24548E-3,0
STARLINK-3718,2022-029AW,2026-06-23T19:10:40.039392,15.08836387,.00009791,53.1595,312.6389,86.5625,273.5478,0,U,52132,999,23695,.19196414E-4,.18E-6,0
STARLINK-3707,2022-029AX,2026-06-24T02:46:23.932992,15.08836965,.00007653,53.1600,311.2173,83.9611,276.1467,0,U,52133,999,23700,.42509094E-4,.389E-5,0
STARLINK-3721,2022-029AY,2026-06-23T15:44:01.468320,15.08824378,.00010401,53.1636,313.2861,89.8308,270.2803,0,U,52134,999,23693,-.26756542E-4,-.713E-5,0
STARLINK-3720,2022-029BA,2026-06-24T02:41:06.271296,15.08834218,.00010267,53.1592,311.2315,93.6991,266.4118,0,U,52136,999,23700,.54848152E-4,.585E-5,0
STARLINK-3733,2022-029BB,2026-06-23T02:34:25.589568,15.08832162,.000113,53.1602,315.7481,91.7597,268.3524,0,U,52137,999,23685,.42935725E-4,.395E-5,0
STARLINK-3723,2022-029BC,2026-06-24T02:35:48.465312,15.08833559,.00011309,53.1615,311.2504,88.3978,271.7143,0,U,52138,999,23700,.35207267E-4,.272E-5,0
