STARLINK-3705           
1 52103U 22029R   26175.14469870  .00198779  00000+0  10995-1 0  9991
2 52103  53.1610 321.0143 0001505 125.9078 234.2055 15.12496866236859
STARLINK-3706           
1 52105U 22029T   26175.25002315  .00083776  00000+0  43013-2 0  9990
2 52105  53.1592 320.4529 0001228 107.1691 185.2518 15.15794589  5798
STARLINK-3670           
1 52106U 22029U   26175.25002315  .00114916  00000+0  44264-2 0  9991
2 52106  53.1614 329.9948 0001123  63.5741 356.7445 15.25466356  5803
STARLINK-3658           
1 52107U 22029V   26175.25002315  .00083651  00000+0  43926-2 0  9997
2 52107  53.1592 320.5085 0001409 108.7404 180.3018 15.15000653  5892
STARLINK-3698           
1 52108U 22029W   26175.25002315  .00083071  00000+0  43785-2 0  9997
2 52108  53.1594 320.5053 0001527  93.1954 157.1147 15.14870983  5747
STARLINK-3687           
1 52110U 22029Y   26175.25002315  .00083012  00000+0  43717-2 0  9990
2 52110  53.1593 320.5089 0001427  92.2676 176.4738 15.14901511  5896
STARLINK-3708           
1 52111U 22029Z   26175.25002315  .00084719  00000+0  45191-2 0  9994
2 52111  53.1593 320.5299 0001083 118.6192 219.2907 15.14436308  5794
STARLINK-3734           
1 52112U 22029AA  26175.25002315  .00298818  00000+0  39912-2 0  9996
2 52112  53.2165 305.8491 0000919  82.1399 257.7944 15.56531355  5839
STARLINK-3736           
1 52113U 22029AB  26175.25002315  .00082053  00000+0  39436-2 0  9990
2 52113  53.1607 320.3181 0000858  72.8538  55.4985 15.18118867  5847
STARLINK-3737           
1 52114U 22029AC  26175.25002315  .00083685  00000+0  42360-2 0  9993
2 52114  53.1588 320.4408 0000804 112.4006 251.7292 15.16295379  5597
STARLINK-3685           
1 52115U 22029AD  26175.25002315  .00124538  00000+0  46717-2 0  9997
2 52115  53.1590 319.8855 0000646  55.3575 336.4656 15.26294963  5751
STARLINK-3735           
1 52116U 22029AE  26175.25002315  .00084612  00000+0  42446-2 0  9991
2 52116  53.1595 320.4281 0000754 116.4100 294.9451 15.16605107  5847
STARLINK-3738           
1 52117U 22029AF  26175.25002315  .00079107  00000+0  39965-2 0  9997
2 52117  53.1607 320.4355 0001150  67.3719  80.1471 15.16393534  5806
STARLINK-3743           
1 52118U 22029AG  26175.25002315  .00079830  00000+0  42219-2 0  9997
2 52118  53.1590 320.5258 0000732  30.7766  10.2110 15.14772926  5798
STARLINK-3558           
1 52119U 22029AH  26175.25002315  .00091676  00000+0  36406-2 0  9991
2 52119  53.1595 319.8877 0001341  75.3107  35.3883 15.24577402  5757
STARLINK-3534           
1 52120U 22029AJ  26175.25002315  .00130053  00000+0  47831-2 0  9990
2 52120  53.1590 319.8292 0001488  63.9120  14.4077 15.26920391  5805
STARLINK-3678           
1 52121U 22029AK  26175.08244430 -.00000126  00000+0  10206-4 0  9994
2 52121  53.1605 311.3680 0001448  96.7191 263.3966 15.08831313236981
STARLINK-3726           
1 52122U 22029AL  26175.25002315  .00078876  00000+0  41507-2 0  9990
2 52122  53.1608 320.4936 0001429  91.3431  46.2633 15.14955997  5803
STARLINK-3725           
1 52123U 22029AM  26174.66016759  .00001974  00000+0  14206-3 0  9994
2 52123  53.1593 313.0854 0001170  93.9797 266.1328 15.08844507236931
STARLINK-3727           
1 52125U 22029AP  26175.07141494  .00002842  00000+0  19665-3 0  9996
2 52125  53.1583 311.4156 0001362  87.9577 272.1571 15.08823496236998
STARLINK-3732           
1 52126U 22029AQ  26175.07876171  .00000285  00000+0  36006-4 0  9992
2 52126  53.1612 311.3825 0001236  85.4831 274.6302 15.08831819236986
STARLINK-3715           
1 52127U 22029AR  26175.06771582 -.00000612  00000+0 -20407-4 0  9996
2 52127  53.1609 311.4323 0000516  54.2967 305.8072 15.08831817236980
STARLINK-3661           
1 52129U 22029AT  26174.66291950 -.00000633  00000+0 -21686-4 0  9992
2 52129  53.1613 313.2546 0001320  97.8093 262.3048 15.08834020236935
STARLINK-3711           
1 52131U 22029AV  26175.08186059  .00024548  00000+0  11736-2 0  9997
2 52131  53.2115 304.0964 0001776 173.7620 186.3399 15.18890633237100
STARLINK-3718           
1 52132U 22029AW  26174.79907453  .00000018  00000+0  19196-4 0  9990
2 52132  53.1595 312.6389 0000979  86.5625 273.5478 15.08836387236952
STARLINK-3707           
1 52133U 22029AX  26175.11555478  .00000389  00000+0  42509-4 0  9999
2 52133  53.1600 311.2173 0000765  83.9611 276.1467 15.08836965237001
STARLINK-3721           
1 52134U 22029AY  26174.65557255 -.00000713  00000+0 -26757-4 0  9993
2 52134  53.1636 313.2861 0001040  89.8308 270.2803 15.08824378236937
STARLINK-3720           
1 52136U 22029BA  26175.11187814  .00000585  00000+0  54848-4 0  9994
2 52136  53.1592 311.2315 0001026  93.6991 266.4118 15.08834218237006
STARLINK-3733           
1 52137U 22029BB  26174.10724062  .00000395  00000+0  42936-4 0  9999
2 52137  53.1602 315.7481 0001130  91.7597 268.3524 15.08832162236859
STARLINK-3723           
1 52138U 22029BC  26175.10819983  .00000272  00000+0  35207-4 0  9995
2 52138  53.1615 311.2504 0001130  88.3978 271.7143 15.08833559237000
